start=new Date('2022-05-16T00:00:00.000Z').valueOf();
sats=[{"SEMIMAJOR_AXIS":"6925.344","INCLINATION":"53.0542","ECCENTRICITY":"0.00015150","MEAN_MOTION_DDOT":"0.0000000000000","OBJECT_ID":"2020-019BE","PERIAPSIS":"546.160","OBJECT_TYPE":"PAYLOAD","MEAN_MOTION_DOT":"0.00001439","DECAY_DATE":null,"MEAN_MOTION":"15.06401371","RCS_SIZE":"LARGE","EPOCH":"2022-05-15T19:56:43.132992","SITE":"AFETR","RA_OF_ASC_NODE":"273.8938","ARG_OF_PERICENTER":"68.1041","ELEMENT_SET_NO":"999","CLASSIFICATION_TYPE":"U","CENTER_NAME":"EARTH","BSTAR":"0.00011549000000","REF_FRAME":"TEME","COUNTRY_CODE":"US","MEAN_ANOMALY":"292.0109","REV_AT_EPOCH":"11977","LAUNCH_DATE":"2020-03-18","TIME_SYSTEM":"UTC","PERIOD":"95.592","TLE_LINE1":"1 45412U 20019BE  22135.83105478  .00001439  00000-0  11549-3 0  9997","FILE":"3447521","OBJECT_NAME":"STARLINK-1296","EPHEMERIS_TYPE":"0","NORAD_CAT_ID":"45412","MEAN_ELEMENT_THEORY":"SGP4","APOAPSIS":"548.259","TLE_LINE2":"2 45412  53.0542 273.8938 0001515  68.1041 292.0109 15.06401371119775","GP_ID":"203646678"},{"TLE_LINE2":"2 45413  53.0549 273.7554 0001478  79.7565 280.3590 15.06396731119871","GP_ID":"203647929","APOAPSIS":"548.247","MEAN_ELEMENT_THEORY":"SGP4","NORAD_CAT_ID":"45413","EPHEMERIS_TYPE":"0","TLE_LINE1":"1 45413U 20019BF  22135.86054761 -.00000071  00000-0  14146-4 0  9998","FILE":"3447521","OBJECT_NAME":"STARLINK-1298","PERIOD":"95.592","LAUNCH_DATE":"2020-03-18","TIME_SYSTEM":"UTC","REV_AT_EPOCH":"11987","MEAN_ANOMALY":"280.3590","REF_FRAME":"TEME","COUNTRY_CODE":"US","ELEMENT_SET_NO":"999","BSTAR":"0.00001414600000","CENTER_NAME":"EARTH","CLASSIFICATION_TYPE":"U","ARG_OF_PERICENTER":"79.7565","RA_OF_ASC_NODE":"273.7554","SITE":"AFETR","EPOCH":"2022-05-15T20:39:11.313504","RCS_SIZE":"LARGE","MEAN_MOTION":"15.06396731","DECAY_DATE":null,"MEAN_MOTION_DOT":"-0.00000071","OBJECT_TYPE":"PAYLOAD","PERIAPSIS":"546.200","ECCENTRICITY":"0.00014780","MEAN_MOTION_DDOT":"0.0000000000000","OBJECT_ID":"2020-019BF","INCLINATION":"53.0549","SEMIMAJOR_AXIS":"6925.359"},{"DECAY_DATE":null,"RCS_SIZE":"LARGE","MEAN_MOTION":"15.06398748","SEMIMAJOR_AXIS":"6925.352","INCLINATION":"53.0539","MEAN_MOTION_DDOT":"0.0000000000000","OBJECT_ID":"2020-019BG","ECCENTRICITY":"0.00016040","OBJECT_TYPE":"PAYLOAD","MEAN_MOTION_DOT":"0.00002552","PERIAPSIS":"546.107","CENTER_NAME":"EARTH","BSTAR":"0.00019017000000","CLASSIFICATION_TYPE":"U","ELEMENT_SET_NO":"999","COUNTRY_CODE":"US","REF_FRAME":"TEME","EPOCH":"2022-05-15T17:06:52.970112","RA_OF_ASC_NODE":"274.4118","SITE":"AFETR","ARG_OF_PERICENTER":"83.9033","TIME_SYSTEM":"UTC","LAUNCH_DATE":"2020-03-18","PERIOD":"95.592","OBJECT_NAME":"STARLINK-1309","FILE":"3447521","TLE_LINE1":"1 45414U 20019BG  22135.71311308  .00002552  00000-0  19017-3 0  9992","MEAN_ANOMALY":"276.2139","REV_AT_EPOCH":"11974","APOAPSIS":"548.328","GP_ID":"203647674","TLE_LINE2":"2 45414  53.0539 274.4118 0001604  83.9033 276.2139 15.06398748119742","EPHEMERIS_TYPE":"0","NORAD_CAT_ID":"45414","MEAN_ELEMENT_THEORY":"SGP4"},{"MEAN_ANOMALY":"272.7497","REV_AT_EPOCH":"11980","LAUNCH_DATE":"2020-03-18","TIME_SYSTEM":"UTC","TLE_LINE1":"1 45415U 20019BH  22135.87160589  .00002008  00000-0  15366-3 0  9992","OBJECT_NAME":"STARLINK-1316","FILE":"3447521","PERIOD":"95.592","EPHEMERIS_TYPE":"0","NORAD_CAT_ID":"45415","MEAN_ELEMENT_THEORY":"SGP4","APOAPSIS":"548.140","TLE_LINE2":"2 45415  53.0548 273.7078 0001331  87.3644 272.7497 15.06398391119802","GP_ID":"203646929","ECCENTRICITY":"0.00013310","MEAN_MOTION_DDOT":"0.0000000000000","OBJECT_ID":"2020-019BH","INCLINATION":"53.0548","SEMIMAJOR_AXIS":"6925.353","MEAN_MOTION_DOT":"0.00002008","OBJECT_TYPE":"PAYLOAD","PERIAPSIS":"546.297","DECAY_DATE":null,"MEAN_MOTION":"15.06398391","RCS_SIZE":"LARGE","EPOCH":"2022-05-15T20:55:06.748896","ARG_OF_PERICENTER":"87.3644","RA_OF_ASC_NODE":"273.7078","SITE":"AFETR","COUNTRY_CODE":"US","REF_FRAME":"TEME","ELEMENT_SET_NO":"999","CLASSIFICATION_TYPE":"U","CENTER_NAME":"EARTH","BSTAR":"0.00015366000000"},{"DECAY_DATE":null,"MEAN_MOTION":"15.06394103","RCS_SIZE":"LARGE","SEMIMAJOR_AXIS":"6925.367","INCLINATION":"53.0543","OBJECT_ID":"2020-019BJ","MEAN_MOTION_DDOT":"0.0000000000000","ECCENTRICITY":"0.00013140","OBJECT_TYPE":"PAYLOAD","MEAN_MOTION_DOT":"0.00000409","PERIAPSIS":"546.322","CENTER_NAME":"EARTH","BSTAR":"0.00004636400000","CLASSIFICATION_TYPE":"U","ELEMENT_SET_NO":"999","COUNTRY_CODE":"US","REF_FRAME":"TEME","EPOCH":"2022-05-15T18:31:48.563040","RA_OF_ASC_NODE":"274.1711","SITE":"AFETR","ARG_OF_PERICENTER":"85.4774","TIME_SYSTEM":"UTC","LAUNCH_DATE":"2020-03-18","PERIOD":"95.593","FILE":"3447521","OBJECT_NAME":"STARLINK-1318","TLE_LINE1":"1 45416U 20019BJ  22135.77208985  .00000409  00000-0  46364-4 0  9991","MEAN_ANOMALY":"274.6365","REV_AT_EPOCH":"11977","APOAPSIS":"548.142","GP_ID":"203647179","TLE_LINE2":"2 45416  53.0543 274.1711 0001314  85.4774 274.6365 15.06394103119779","EPHEMERIS_TYPE":"0","MEAN_ELEMENT_THEORY":"SGP4","NORAD_CAT_ID":"45416"},{"ECCENTRICITY":"0.00014760","MEAN_MOTION_DDOT":"0.0000000000000","OBJECT_ID":"2020-019BK","SEMIMAJOR_AXIS":"6925.341","INCLINATION":"53.0537","OBJECT_TYPE":"PAYLOAD","MEAN_MOTION_DOT":"0.00001431","PERIAPSIS":"546.184","DECAY_DATE":null,"MEAN_MOTION":"15.06402352","RCS_SIZE":"LARGE","EPOCH":"2022-05-15T20:13:58.395072","ARG_OF_PERICENTER":"88.4390","SITE":"AFETR","RA_OF_ASC_NODE":"303.8382","REF_FRAME":"TEME","COUNTRY_CODE":"US","ELEMENT_SET_NO":"999","CLASSIFICATION_TYPE":"U","CENTER_NAME":"EARTH","BSTAR":"0.00011492000000","MEAN_ANOMALY":"271.6768","REV_AT_EPOCH":"11963","LAUNCH_DATE":"2020-03-18","TIME_SYSTEM":"UTC","TLE_LINE1":"1 45417U 20019BK  22135.84303698  .00001431  00000-0  11492-3 0  9996","OBJECT_NAME":"STARLINK-1286","FILE":"3447521","PERIOD":"95.592","EPHEMERIS_TYPE":"0","NORAD_CAT_ID":"45417","MEAN_ELEMENT_THEORY":"SGP4","APOAPSIS":"548.229","TLE_LINE2":"2 45417  53.0537 303.8382 0001476  88.4390 271.6768 15.06402352119638","GP_ID":"203647429"},{"EPOCH":"2022-05-15T20:13:32.438784","SITE":"AFETR","RA_OF_ASC_NODE":"325.4330","ARG_OF_PERICENTER":"128.7589","CLASSIFICATION_TYPE":"U","BSTAR":"0.00145980000000","CENTER_NAME":"EARTH","ELEMENT_SET_NO":"999","COUNTRY_CODE":"US","REF_FRAME":"TEME","INCLINATION":"52.9994","SEMIMAJOR_AXIS":"6929.436","OBJECT_ID":"2020-019BL","MEAN_MOTION_DDOT":"0.0000000000000","ECCENTRICITY":"0.00012930","PERIAPSIS":"550.405","OBJECT_TYPE":"PAYLOAD","MEAN_MOTION_DOT":"0.00020762","DECAY_DATE":null,"MEAN_MOTION":"15.05067396","RCS_SIZE":"LARGE","EPHEMERIS_TYPE":"0","NORAD_CAT_ID":"45418","MEAN_ELEMENT_THEORY":"SGP4","APOAPSIS":"552.197","GP_ID":"203648175","TLE_LINE2":"2 45418  52.9994 325.4330 0001293 128.7589 231.3514 15.05067396119032","MEAN_ANOMALY":"231.3514","REV_AT_EPOCH":"11903","TIME_SYSTEM":"UTC","LAUNCH_DATE":"2020-03-18","PERIOD":"95.677","FILE":"3447521","OBJECT_NAME":"STARLINK-1299","TLE_LINE1":"1 45418U 20019BL  22135.84273656  .00020762  00000-0  14598-2 0  9994"},{"TLE_LINE2":"2 45419  53.0563 303.8662 0001396  81.6873 278.4274 15.06387170119381","GP_ID":"203646429","APOAPSIS":"548.220","NORAD_CAT_ID":"45419","MEAN_ELEMENT_THEORY":"SGP4","EPHEMERIS_TYPE":"0","TLE_LINE1":"1 45419U 20019BM  22135.83936870 -.00000530  00000-0 -16679-4 0  9995","OBJECT_NAME":"STARLINK-1308","FILE":"3447521","PERIOD":"95.593","LAUNCH_DATE":"2020-03-18","TIME_SYSTEM":"UTC","REV_AT_EPOCH":"11938","MEAN_ANOMALY":"278.4274","REF_FRAME":"TEME","COUNTRY_CODE":"US","ELEMENT_SET_NO":"999","BSTAR":"-0.00001667900000","CLASSIFICATION_TYPE":"U","CENTER_NAME":"EARTH","ARG_OF_PERICENTER":"81.6873","RA_OF_ASC_NODE":"303.8662","SITE":"AFETR","EPOCH":"2022-05-15T20:08:41.455680","RCS_SIZE":"LARGE","MEAN_MOTION":"15.06387170","DECAY_DATE":null,"OBJECT_TYPE":"PAYLOAD","MEAN_MOTION_DOT":"-0.00000530","PERIAPSIS":"546.286","ECCENTRICITY":"0.00013960","MEAN_MOTION_DDOT":"0.0000000000000","OBJECT_ID":"2020-019BM","INCLINATION":"53.0563","SEMIMAJOR_AXIS":"6925.388"},{"REV_AT_EPOCH":"11500","MEAN_ANOMALY":"276.4264","FILE":"3447521","OBJECT_NAME":"STARLINK-1329","TLE_LINE1":"1 45531U 20025A   22135.80801907  .00000429  00000-0  47701-4 0  9991","PERIOD":"95.592","TIME_SYSTEM":"UTC","LAUNCH_DATE":"2020-04-22","NORAD_CAT_ID":"45531","MEAN_ELEMENT_THEORY":"SGP4","EPHEMERIS_TYPE":"0","GP_ID":"203646941","TLE_LINE2":"2 45531  53.0547 244.0033 0001334  83.6877 276.4264 15.06404278115005","APOAPSIS":"548.124","PERIAPSIS":"546.277","OBJECT_TYPE":"PAYLOAD","MEAN_MOTION_DOT":"0.00000429","MEAN_MOTION_DDOT":"0.0000000000000","OBJECT_ID":"2020-025A","ECCENTRICITY":"0.00013340","SEMIMAJOR_AXIS":"6925.335","INCLINATION":"53.0547","RCS_SIZE":"LARGE","MEAN_MOTION":"15.06404278","DECAY_DATE":null,"ARG_OF_PERICENTER":"83.6877","RA_OF_ASC_NODE":"244.0033","SITE":"AFETR","EPOCH":"2022-05-15T19:23:32.847648","REF_FRAME":"TEME","COUNTRY_CODE":"US","CLASSIFICATION_TYPE":"U","BSTAR":"0.00004770100000","CENTER_NAME":"EARTH","ELEMENT_SET_NO":"999"},{"EPHEMERIS_TYPE":"0","MEAN_ELEMENT_THEORY":"SGP4","NORAD_CAT_ID":"45532","APOAPSIS":"547.960","TLE_LINE2":"2 45532  53.0557 244.5460 0001130  73.4432 286.6681 15.06411633114989","GP_ID":"203647191","MEAN_ANOMALY":"286.6681","REV_AT_EPOCH":"11498","LAUNCH_DATE":"2020-04-22","TIME_SYSTEM":"UTC","PERIOD":"95.591","TLE_LINE1":"1 45532U 20025B   22135.68639433  .00012611  00000-0  86370-3 0  9991","FILE":"3447521","OBJECT_NAME":"STARLINK-1338","EPOCH":"2022-05-15T16:28:24.470112","RA_OF_ASC_NODE":"244.5460","SITE":"AFETR","ARG_OF_PERICENTER":"73.4432","ELEMENT_SET_NO":"999","BSTAR":"0.00086370000000","CLASSIFICATION_TYPE":"U","CENTER_NAME":"EARTH","COUNTRY_CODE":"US","REF_FRAME":"TEME","SEMIMAJOR_AXIS":"6925.313","INCLINATION":"53.0557","ECCENTRICITY":"0.00011300","MEAN_MOTION_DDOT":"0.0000000000000","OBJECT_ID":"2020-025B","OBJECT_TYPE":"PAYLOAD","PERIAPSIS":"546.395","MEAN_MOTION_DOT":"0.00012611","DECAY_DATE":null,"MEAN_MOTION":"15.06411633","RCS_SIZE":"LARGE"}];
